{"type": "FeatureCollection", "features": [ {"type": "Feature", "properties": {"norad_id": 66960, "name": "STARLINK-35879", "group": "last-30-days", "lat": -12.699241235151955, "lon": -89.07913484523264, "alt_km": 402.3243122922695, "timestamp": "2025-12-27T14:26:29.244960+00:00", "meta": {"OBJECT_NAME": "STARLINK-35879", "OBJECT_ID": "2025-288B", "EPOCH": "2025-12-27T06:00:02.000160", "MEAN_MOTION": 15.56808974, "ECCENTRICITY": 0.00012667, "INCLINATION": 43, "RA_OF_ASC_NODE": 79.001, "ARG_OF_PERICENTER": 267.9765, "MEAN_ANOMALY": 118.2509, "EPHEMERIS_TYPE": 0, "CLASSIFICATION_TYPE": "U", "NORAD_CAT_ID": 66960, "ELEMENT_SET_NO": 999, "REV_AT_EPOCH": 416, "BSTAR": -0.030785295, "MEAN_MOTION_DOT": -0.02025898, "MEAN_MOTION_DDOT": 0}, "tle": {"line1": "1 66960U 25288B   25361.25002315 -.02025898  00000+0 -30785-1 0  9996", "line2": "2 66960  43.0000  79.0010 0001266 267.9765 118.2509 15.56808974  4160"}}, "geometry": {"type": "Point", "coordinates": [-89.07913484523264, -12.699241235151955]}}, {"type": "Feature", "properties": {"norad_id": 66961, "name": "STARLINK-35761", "group": "last-30-days", "lat": -13.962137842684257, "lon": -87.60369283775832, "alt_km": 402.4686613639187, "timestamp": "2025-12-27T14:26:29.244970+00:00", "meta": {"OBJECT_NAME": "STARLINK-35761", "OBJECT_ID": "2025-288C", "EPOCH": "2025-12-27T06:00:02.000160", "MEAN_MOTION": 15.5681301, "ECCENTRICITY": 0.00013233, "INCLINATION": 43, "RA_OF_ASC_NODE": 78.9963, "ARG_OF_PERICENTER": 270.5942, "MEAN_ANOMALY": 117.5502, "EPHEMERIS_TYPE": 0, "CLASSIFICATION_TYPE": "U", "NORAD_CAT_ID": 66961, "ELEMENT_SET_NO": 999, "REV_AT_EPOCH": 416, "BSTAR": -0.030940891, "MEAN_MOTION_DOT": -0.02035363, "MEAN_MOTION_DDOT": 0}, "tle": {"line1": "1 66961U 25288C   25361.25002315 -.02035363  00000+0 -30941-1 0  9999", "line2": "2 66961  43.0000  78.9963 0001323 270.5942 117.5502 15.56813010  4169"}}, "geometry": {"type": "Point", "coordinates": [-87.60369283775832, -13.962137842684257]}}, {"type": "Feature", "properties": {"norad_id": 66962, "name": "STARLINK-35874", "group": "last-30-days", "lat": -15.21472370323364, "lon": -86.1138342052913, "alt_km": 402.5581126919342, "timestamp": "2025-12-27T14:26:29.244980+00:00", "meta": {"OBJECT_NAME": "STARLINK-35874", "OBJECT_ID": "2025-288D", "EPOCH": "2025-12-27T06:00:02.000160", "MEAN_MOTION": 15.56816598, "ECCENTRICITY": 0.00014758, "INCLINATION": 42.9995, "RA_OF_ASC_NODE": 78.991, "ARG_OF_PERICENTER": 272.5193, "MEAN_ANOMALY": 117.538, "EPHEMERIS_TYPE": 0, "CLASSIFICATION_TYPE": "U", "NORAD_CAT_ID": 66962, "ELEMENT_SET_NO": 999, "REV_AT_EPOCH": 416, "BSTAR": -0.030971089, "MEAN_MOTION_DOT": -0.02037482, "MEAN_MOTION_DDOT": 0}, "tle": {"line1": "1 66962U 25288D   25361.25002315 -.02037482  00000+0 -30971-1 0  9997", "line2": "2 66962  42.9995  78.9910 0001475 272.5193 117.5380 15.56816598  4169"}}, "geometry": {"type": "Point", "coordinates": [-86.1138342052913, -15.21472370323364]}}, {"type": "Feature", "properties": {"norad_id": 66963, "name": "STARLINK-36133", "group": "last-30-days", "lat": -16.461335671265562, "lon": -84.60099202799147, "alt_km": 402.58726236216717, "timestamp": "2025-12-27T14:26:29.244991+00:00", "meta": {"OBJECT_NAME": "STARLINK-36133", "OBJECT_ID": "2025-288E", "EPOCH": "2025-12-27T06:00:02.000160", "MEAN_MOTION": 15.56817374, "ECCENTRICITY": 0.00014171, "INCLINATION": 42.9997, "RA_OF_ASC_NODE": 78.9863, "ARG_OF_PERICENTER": 268.87, "MEAN_ANOMALY": 123.1084, "EPHEMERIS_TYPE": 0, "CLASSIFICATION_TYPE": "U", "NORAD_CAT_ID": 66963, "ELEMENT_SET_NO": 999, "REV_AT_EPOCH": 416, "BSTAR": -0.031054628, "MEAN_MOTION_DOT": -0.02042408, "MEAN_MOTION_DDOT": 0}, "tle": {"line1": "1 66963U 25288E   25361.25002315 -.02042408  00000+0 -31055-1 0  9996", "line2": "2 66963  42.9997  78.9863 0001417 268.8700 123.1084 15.56817374  4164"}}, "geometry": {"type": "Point", "coordinates": [-84.60099202799147, -16.461335671265562]}}, {"type": "Feature", "properties": {"norad_id": 66964, "name": "STARLINK-36104", "group": "last-30-days", "lat": -17.69391587083884, "lon": -83.07255183781434, "alt_km": 402.7027823163198, "timestamp": "2025-12-27T14:26:29.245003+00:00", "meta": {"OBJECT_NAME": "STARLINK-36104", "OBJECT_ID": "2025-288F", "EPOCH": "2025-12-27T06:00:02.000160", "MEAN_MOTION": 15.56817343, "ECCENTRICITY": 0.00014175, "INCLINATION": 42.9996, "RA_OF_ASC_NODE": 78.9812, "ARG_OF_PERICENTER": 270.8038, "MEAN_ANOMALY": 123.0902, "EPHEMERIS_TYPE": 0, "CLASSIFICATION_TYPE": "U", "NORAD_CAT_ID": 66964, "ELEMENT_SET_NO": 999, "REV_AT_EPOCH": 416, "BSTAR": -0.031030112, "MEAN_MOTION_DOT": -0.02040965, "MEAN_MOTION_DDOT": 0}, "tle": {"line1": "1 66964U 25288F   25361.25002315 -.02040965  00000+0 -31030-1 0  9996", "line2": "2 66964  42.9996  78.9812 0001417 270.8038 123.0902 15.56817343  4169"}}, "geometry": {"type": "Point", "coordinates": [-83.07255183781434, -17.69391587083884]}}, {"type": "Feature", "properties": {"norad_id": 66965, "name": "STARLINK-36067", "group": "last-30-days", "lat": -18.91487460685486, "lon": -81.52167652963591, "alt_km": 402.88559429261386, "timestamp": "2025-12-27T14:26:29.245013+00:00", "meta": {"OBJECT_NAME": "STARLINK-36067", "OBJECT_ID": "2025-288G", "EPOCH": "2025-12-27T06:00:02.000160", "MEAN_MOTION": 15.5681618, "ECCENTRICITY": 0.00013041, "INCLINATION": 42.9994, "RA_OF_ASC_NODE": 78.9768, "ARG_OF_PERICENTER": 274.2636, "MEAN_ANOMALY": 121.5489, "EPHEMERIS_TYPE": 0, "CLASSIFICATION_TYPE": "U", "NORAD_CAT_ID": 66965, "ELEMENT_SET_NO": 999, "REV_AT_EPOCH": 416, "BSTAR": -0.031058963, "MEAN_MOTION_DOT": -0.02042509, "MEAN_MOTION_DDOT": 0}, "tle": {"line1": "1 66965U 25288G   25361.25002315 -.02042509  00000+0 -31059-1 0  9994", "line2": "2 66965  42.9994  78.9768 0001304 274.2636 121.5489 15.56816180  4166"}}, "geometry": {"type": "Point", "coordinates": [-81.52167652963591, -18.91487460685486]}}, {"type": "Feature", "properties": {"norad_id": 66966, "name": "STARLINK-36139", "group": "last-30-days", "lat": -20.12136046736099, "lon": -79.95071325584098, "alt_km": 402.89208558122664, "timestamp": "2025-12-27T14:26:29.245023+00:00", "meta": {"OBJECT_NAME": "STARLINK-36139", "OBJECT_ID": "2025-288H", "EPOCH": "2025-12-27T06:00:02.000160", "MEAN_MOTION": 15.56816521, "ECCENTRICITY": 0.00015275, "INCLINATION": 42.9997, "RA_OF_ASC_NODE": 78.9719, "ARG_OF_PERICENTER": 274.2093, "MEAN_ANOMALY": 123.5197, "EPHEMERIS_TYPE": 0, "CLASSIFICATION_TYPE": "U", "NORAD_CAT_ID": 66966, "ELEMENT_SET_NO": 999, "REV_AT_EPOCH": 416, "BSTAR": -0.031055234, "MEAN_MOTION_DOT": -0.02042456, "MEAN_MOTION_DDOT": 0}, "tle": {"line1": "1 66966U 25288H   25361.25002315 -.02042456  00000+0 -31055-1 0  9992", "line2": "2 66966  42.9997  78.9719 0001527 274.2093 123.5197 15.56816521  4167"}}, "geometry": {"type": "Point", "coordinates": [-79.95071325584098, -20.12136046736099]}}, {"type": "Feature", "properties": {"norad_id": 66967, "name": "STARLINK-36136", "group": "last-30-days", "lat": -21.316206730955546, "lon": -78.35210506442247, "alt_km": 403.0013491154705, "timestamp": "2025-12-27T14:26:29.245035+00:00", "meta": {"OBJECT_NAME": "STARLINK-36136", "OBJECT_ID": "2025-288J", "EPOCH": "2025-12-27T06:00:02.000160", "MEAN_MOTION": 15.56819172, "ECCENTRICITY": 0.00013723, "INCLINATION": 43.0001, "RA_OF_ASC_NODE": 78.9669, "ARG_OF_PERICENTER": 274.1913, "MEAN_ANOMALY": 125.453, "EPHEMERIS_TYPE": 0, "CLASSIFICATION_TYPE": "U", "NORAD_CAT_ID": 66967, "ELEMENT_SET_NO": 999, "REV_AT_EPOCH": 416, "BSTAR": -0.031100762, "MEAN_MOTION_DOT": -0.02045213, "MEAN_MOTION_DDOT": 0}, "tle": {"line1": "1 66967U 25288J   25361.25002315 -.02045213  00000+0 -31101-1 0  9999", "line2": "2 66967  43.0001  78.9669 0001372 274.1913 125.4530 15.56819172  4165"}}, "geometry": {"type": "Point", "coordinates": [-78.35210506442247, -21.316206730955546]}}, {"type": "Feature", "properties": {"norad_id": 66968, "name": "STARLINK-36152", "group": "last-30-days", "lat": -22.493771873468486, "lon": -76.72957744109668, "alt_km": 403.0566063460683, "timestamp": "2025-12-27T14:26:29.245045+00:00", "meta": {"OBJECT_NAME": "STARLINK-36152", "OBJECT_ID": "2025-288K", "EPOCH": "2025-12-27T06:00:02.000160", "MEAN_MOTION": 15.56813114, "ECCENTRICITY": 0.00014216, "INCLINATION": 43.0001, "RA_OF_ASC_NODE": 78.9619, "ARG_OF_PERICENTER": 275.0007, "MEAN_ANOMALY": 126.5623, "EPHEMERIS_TYPE": 0, "CLASSIFICATION_TYPE": "U", "NORAD_CAT_ID": 66968, "ELEMENT_SET_NO": 999, "REV_AT_EPOCH": 416, "BSTAR": -0.030927002, "MEAN_MOTION_DOT": -0.02034615, "MEAN_MOTION_DDOT": 0}, "tle": {"line1": "1 66968U 25288K   25361.25002315 -.02034615  00000+0 -30927-1 0  9999", "line2": "2 66968  43.0001  78.9619 0001421 275.0007 126.5623 15.56813114  4165"}}, "geometry": {"type": "Point", "coordinates": [-76.72957744109668, -22.493771873468486]}}, {"type": "Feature", "properties": {"norad_id": 66969, "name": "STARLINK-36149", "group": "last-30-days", "lat": -28.109314480605875, "lon": -68.1608162072535, "alt_km": 403.2767954477622, "timestamp": "2025-12-27T14:26:29.245055+00:00", "meta": {"OBJECT_NAME": "STARLINK-36149", "OBJECT_ID": "2025-288L", "EPOCH": "2025-12-27T06:00:02.000160", "MEAN_MOTION": 15.5681863, "ECCENTRICITY": 0.00013883, "INCLINATION": 42.9998, "RA_OF_ASC_NODE": 78.9379, "ARG_OF_PERICENTER": 272.5279, "MEAN_ANOMALY": 138.6189, "EPHEMERIS_TYPE": 0, "CLASSIFICATION_TYPE": "U", "NORAD_CAT_ID": 66969, "ELEMENT_SET_NO": 999, "REV_AT_EPOCH": 416, "BSTAR": -0.031055562, "MEAN_MOTION_DOT": -0.0204253, "MEAN_MOTION_DDOT": 0}, "tle": {"line1": "1 66969U 25288L   25361.25002315 -.02042530  00000+0 -31056-1 0  9999", "line2": "2 66969  42.9998  78.9379 0001388 272.5279 138.6189 15.56818630  4166"}}, "geometry": {"type": "Point", "coordinates": [-68.1608162072535, -28.109314480605875]}}]}